stk.v.11.0

# WrittenBy    STK_v11.7.1

BEGIN Ephemeris

    NumberOfEphemerisPoints		 2574

    ScenarioEpoch		 16 Jul 2020 03:40:48.000000

# Epoch in JDate format: 2459046.65333333333333
# Epoch in YYDDD format:   20198.15333333333333


    InterpolationMethod		 Lagrange

    InterpolationSamplesM1		 7

    CentralBody		 Earth

    CoordinateSystem		 ICRF

# Time of first point: 16 Jul 2020 03:40:48.000000000 UTCG = 2459046.65333333333333 JDate = 20198.15333333333333 YYDDD

    EphemerisTimePosVel		

 8.9086280000000133e+03 -7.3718286495998269e+05  2.7051650327064935e+06 -5.9256175959510030e+06  4.1432456473245211e+03 -5.7975322125807015e+03 -3.1590236969129346e+03
 8.9689710000000141e+03 -4.8549135997297696e+05  2.3486917319402532e+06 -6.1008480686101336e+06  4.1952154553206137e+03 -6.0123101808978017e+03 -2.6463278304349324e+03
 9.0314630000000125e+03 -2.2223008961465827e+05  1.9668622636256940e+06 -6.2492576294189282e+06  4.2263622176152512e+03 -6.2021886135978593e+03 -2.1012296537412212e+03
 9.0859280000000126e+03  8.2624698724418704e+03  1.6251913758549923e+06 -6.3505415565266451e+06  4.2345713704609407e+03 -6.3398807039548974e+03 -1.6167193511150194e+03
 9.1421180000000113e+03  2.4600873783479261e+05  1.2656090018760590e+06 -6.4271737186862826e+06  4.2245225641174911e+03 -6.4541804779511813e+03 -1.1098912698701936e+03
 9.1975570000000098e+03  4.7951177759548085e+05  9.0531878617374762e+05 -6.4747282408663705e+06  4.1962252786762256e+03 -6.5388507248719879e+03 -6.0506232480958874e+02
 9.2474950000000117e+03  6.8809970887619548e+05  5.7738554064865923e+05 -6.4935385736763813e+06  4.1552094874812828e+03 -6.5909243611560523e+03 -1.4807213487398138e+02
 9.2934040000000114e+03  8.7774745420087490e+05  2.7409697763209068e+05 -6.4906813320421660e+06  4.1046484566782565e+03 -6.6184093290768997e+03  2.7251161096029375e+02
 9.3420100000000111e+03  1.0756897943122608e+06 -4.7874302038948343e+04 -6.4666295010823533e+06  4.0378663497727339e+03 -6.6261335180759152e+03  7.1687662233438220e+02
 9.3902310000000089e+03  1.2685353925918008e+06 -3.6714050622541789e+05 -6.4214765734955184e+06  3.9583614344946345e+03 -6.6120492765600420e+03  1.1553620673612011e+03
 9.4337380000000067e+03  1.4389874490331153e+06 -6.5419461599791935e+05 -6.3626606912082331e+06  3.8755151241250687e+03 -6.5807899516581083e+03  1.5477824640438084e+03
 9.4801080000000093e+03  1.6164293728316082e+06 -9.5820304408008070e+05 -6.2812780387690226e+06  3.7758613061234228e+03 -6.5281943510821848e+03  1.9614784086064042e+03
 9.5280230000000101e+03  1.7946432272960125e+06 -1.2692863085039654e+06 -6.1771736225343961e+06  3.6608845195685417e+03 -6.4531058252106877e+03  2.3827349549283999e+03
 9.5766460000000097e+03  1.9695643390139074e+06 -1.5807714568197818e+06 -6.0510810920744864e+06  3.5321131118460107e+03 -6.3555952445287303e+03  2.8023703563762310e+03
 9.6286140000000105e+03  2.1492643930789223e+06 -1.9078472577781733e+06 -5.8940118324348610e+06  3.3814893007815090e+03 -6.2279996664395385e+03  3.2405656642793456e+03
 9.6826270000000095e+03  2.3273737366227866e+06 -2.2400948427435867e+06 -5.7069675425041802e+06  3.2113033531649876e+03 -6.0702905097780813e+03  3.6829700864998495e+03
 9.7455400000000100e+03  2.5227392967209751e+06 -2.6154032624496426e+06 -5.4595384464628035e+06  2.9964615170304905e+03 -5.8551906107917721e+03  4.1791411732068427e+03
 9.8077350000000097e+03  2.7020690572450319e+06 -2.9721176367656328e+06 -5.1849482456110651e+06  2.7676044331354315e+03 -5.6104293390704433e+03  4.6468366759272931e+03
 9.8652560000000103e+03  2.8548483874141560e+06 -3.2876628106110352e+06 -4.9057538967572385e+06  2.5424464845108082e+03 -5.3567766328959915e+03  5.0569618397312834e+03
 9.9208730000000087e+03  2.9899317775840443e+06 -3.5782142043331359e+06 -4.6139891083292430e+06  2.3134089363195362e+03 -5.0877117550229523e+03  5.4311606196070397e+03
 9.9783030000000090e+03  3.1157435076156529e+06 -3.8618640013108347e+06 -4.2915703150895080e+06  2.0662774916993840e+03 -4.7865547765697502e+03  5.7927282982443967e+03
 1.0039109000000009e+04  3.2331622657003622e+06 -4.1426047600797508e+06 -3.9284337438044576e+06  1.7941115021527557e+03 -4.4434024426141823e+03  6.1461871962604682e+03
 1.0097723000000007e+04  3.3304113359278771e+06 -4.3928122669427525e+06 -3.5589344624835723e+06  1.5228263477189021e+03 -4.0906031840578967e+03  6.4566051415814482e+03
 1.0158044000000007e+04  3.4136515244844183e+06 -4.6280863571332628e+06 -3.1606459043158283e+06  1.2358904068890624e+03 -3.7067831286601836e+03  6.7433764524743547e+03
 1.0215995000000004e+04  3.4771352857473814e+06 -4.8317726974922093e+06 -2.7626650687600230e+06  9.5418209404296840e+02 -3.3200359542147116e+03  6.9862730596880710e+03
 1.0277325000000006e+04  3.5263834236019934e+06 -5.0223980543776825e+06 -2.3272290170870209e+06  6.5110524773544103e+02 -2.8935869147730041e+03  7.2072069641089438e+03
 1.0337275000000007e+04  3.5564482533083591e+06 -5.1829948216954870e+06 -1.8896079978279707e+06  3.5146286482155341e+02 -2.4618324919328734e+03  7.3861412911897050e+03
 1.0391689000000008e+04  3.5681337220279747e+06 -5.3060375986373639e+06 -1.4840218159130032e+06  7.7887684614655143e+01 -2.0590574256308992e+03  7.5160740880997164e+03
 1.0446981000000009e+04  3.5647445458827126e+06 -5.4083654671130897e+06 -1.0655336422666139e+06 -2.0043553567899573e+02 -1.6409744727511311e+03  7.6158536687012074e+03
 1.0499211000000008e+04  3.5474246445505200e+06 -5.4836137095549582e+06 -6.6595753363422665e+05 -4.6256658646360268e+02 -1.2395222498409682e+03  7.6798593246617975e+03
 1.0554096000000007e+04  3.5145193023003931e+06 -5.5399482523063347e+06 -2.4332908141022059e+05 -7.3607011915347425e+02 -8.1257730011474769e+02  7.7151777149852396e+03
 1.0607968000000006e+04  3.4677009435235513e+06 -5.5723567121913610e+06  1.7251786976643308e+05 -1.0014647188927177e+03 -3.9018610131134585e+02  7.7178719486783411e+03
 1.0662815000000004e+04  3.4054583391705370e+06 -5.5819242690445520e+06  5.9515260337635013e+05 -1.2674063749809918e+03  4.1415164927593082e+01  7.6880698871125169e+03
 1.0712977000000004e+04  3.3358800629583099e+06 -5.5699471685425406e+06  9.7951377365860157e+05 -1.5059082289431642e+03  4.3596766533548487e+02  7.6321806369447886e+03
 1.0763558000000006e+04  3.2537407234546072e+06 -5.5378655401167488e+06  1.3635525326685840e+06 -1.7409398636121311e+03  8.3215972309457425e+02  7.5483428593181534e+03
 1.0816963000000005e+04  3.1542899523007409e+06 -5.4823256393957762e+06  1.7636521818014523e+06 -1.9822002350645819e+03  1.2470746784443550e+03  7.4302299823951116e+03
 1.0870792000000003e+04  3.0412252350513558e+06 -5.4040538286977485e+06  2.1597302524738619e+06 -2.2172428879091435e+03  1.6600770996110241e+03  7.2809138340841491e+03
 1.0919679000000006e+04  2.9277736949371337e+06 -5.3138489984011799e+06  2.5118258868802134e+06 -2.4228223458398138e+03  2.0292066630714228e+03  7.1195108183927323e+03
 1.0968501000000006e+04  2.8046404622123437e+06 -5.2059189141351338e+06  2.8549919776996733e+06 -2.6199254450566655e+03  2.3909069275616580e+03  6.9344026590623698e+03
 1.1018161000000006e+04  2.6697433178523658e+06 -5.0782214942329284e+06  3.1941849086875431e+06 -2.8113198629679068e+03  2.7504518302050101e+03  6.7222561031314981e+03
 1.1069282000000005e+04  2.5212064308843715e+06 -4.9283672384176031e+06  3.5317324437903124e+06 -2.9980754386503113e+03  3.1104556690726695e+03  6.4795273198013365e+03
 1.1132352000000004e+04  2.3252441262957142e+06 -4.7185928396380609e+06  3.9301079317190414e+06 -3.2131307057157278e+03  3.5385204394360844e+03  6.1473972382334241e+03
 1.1191062000000004e+04  2.1311217269962658e+06 -4.4995858416928165e+06  4.2811813735479703e+06 -3.3971095819452071e+03  3.9190742405360393e+03  5.8073639565387248e+03
 1.1252195000000002e+04  1.9180342077472790e+06 -4.2484008489830364e+06  4.6246199868092453e+06 -3.5711019902538105e+03  4.2949551983460897e+03  5.4235190327046485e+03
 1.1311229000000001e+04  1.7026971538201720e+06 -3.9846658956954610e+06  4.9331812694954481e+06 -3.7212671855151302e+03  4.6363926500756043e+03  5.0259140873656388e+03
 1.1376995000000001e+04  1.4530449054973519e+06 -3.6679661611725846e+06  5.2483641560898470e+06 -3.8670161886766973e+03  4.9898125112954322e+03  4.5542395299168084e+03
 1.1439341000000002e+04  1.2082099646180486e+06 -3.3471556460343869e+06  5.5176930912165539e+06 -3.9834763067849703e+03  5.2967815884822103e+03  4.0816706668368311e+03
 1.1502192000000005e+04  9.5472974362409220e+05 -3.0052866510005249e+06  5.7586666431384375e+06 -4.0788617050758162e+03  5.5768904525771432e+03  3.5829008909349332e+03
 1.1555462000000005e+04  7.3569385649422568e+05 -2.7024259922145992e+06  5.9379131569840107e+06 -4.1420202578571316e+03  5.7901071423371013e+03  3.1446174564473813e+03
 1.1609083000000004e+04  5.1226139086509455e+05 -2.3867192215592293e+06  6.0944185336826444e+06 -4.1889460808326321e+03  5.9814198967025077e+03  2.6909002910306817e+03
 1.1663335000000005e+04  2.8410247290801653e+05 -2.0575176455224887e+06  6.2277012638743762e+06 -4.2192395290777758e+03  6.1504190264701801e+03  2.2208893375958769e+03
 1.1714789000000006e+04  6.6612962925336033e+04 -1.7374345022190413e+06  6.3303210036167223e+06 -4.2318915696540435e+03  6.2872578565406584e+03  1.7666802429991490e+03
 1.1758521000000006e+04 -1.1846275018723050e+05 -1.4602757929641837e+06  6.3990420689883549e+06 -4.2303045529039136e+03  6.3852379436345391e+03  1.3754492554006786e+03
 1.1802793000000007e+04 -3.0549852574761899e+05 -1.1757135364988917e+06  6.4510980021798583e+06 -4.2171557257868462e+03  6.4669996273356082e+03  9.7565556204006270e+02
 1.1852309000000007e+04 -5.1367122356546030e+05 -8.5365833057481796e+05  6.4882715042212950e+06 -4.1887375188272972e+03  6.5374036051310595e+03  5.2538833265441144e+02
 1.1903413000000006e+04 -7.2666258610868920e+05 -5.1821346130453440e+05  6.5032031683101058e+06 -4.1443246792868704e+03  6.5865236905693318e+03  5.8793819450945421e+01
END Ephemeris
